{
  "type": "FeatureCollection",
  "features": [
    {
      "type": "Feature",
      "properties": {
        "norad_id": 36199,
        "name": "FENGYUN 1C DEB",
        "group": "fengyun-1c-debris",
        "lat": 32.24535052226578,
        "lon": -168.1426640035923,
        "alt_km": 774.0932473216071,
        "timestamp": "2025-12-11T08:58:27.412124+00:00",
        "meta_object_name": "FENGYUN 1C DEB",
        "meta_object_id": "1999-025DTY",
        "meta_epoch": "2025-12-09T21:01:24.472416",
        "meta_mean_motion": 14.29643136,
        "meta_eccentricity": 0.00929805,
        "meta_inclination": 98.2902,
        "meta_ra_of_asc_node": 5.1538,
        "meta_arg_of_pericenter": 75.8738,
        "meta_mean_anomaly": 285.2756,
        "meta_ephemeris_type": 0,
        "meta_classification_type": "U",
        "meta_norad_cat_id": 36199,
        "meta_element_set_no": 999,
        "meta_rev_at_epoch": 64939,
        "meta_bstar": 0.00037118247,
        "meta_mean_motion_dot": 9.56e-06,
        "meta_mean_motion_ddot": 0,
        "tle_line1": "1 36199U 99025DTY 25343.87597769  .00000956  00000+0  37118-3 0  9990",
        "tle_line2": "2 36199  98.2902   5.1538 0092980  75.8738 285.2756 14.29643136649393"
      },
      "geometry": {
        "type": "Point",
        "coordinates": [
          -168.1426640035923,
          32.24535052226578
        ]
      }
    },
    {
      "type": "Feature",
      "properties": {
        "norad_id": 36200,
        "name": "FENGYUN 1C DEB",
        "group": "fengyun-1c-debris",
        "lat": 28.87611004145225,
        "lon": -115.61050209052742,
        "alt_km": 713.6856764165968,
        "timestamp": "2025-12-11T08:58:27.412134+00:00",
        "meta_object_name": "FENGYUN 1C DEB",
        "meta_object_id": "1999-025DTZ",
        "meta_epoch": "2025-12-07T03:51:08.362944",
        "meta_mean_motion": 14.58359228,
        "meta_eccentricity": 0.00334809,
        "meta_inclination": 99.3875,
        "meta_ra_of_asc_node": 54.4014,
        "meta_arg_of_pericenter": 25.778,
        "meta_mean_anomaly": 334.5075,
        "meta_ephemeris_type": 0,
        "meta_classification_type": "U",
        "meta_norad_cat_id": 36200,
        "meta_element_set_no": 999,
        "meta_rev_at_epoch": 73279,
        "meta_bstar": 0.0062871133,
        "meta_mean_motion_dot": 0.00029404,
        "meta_mean_motion_ddot": 0,
        "tle_line1": "1 36200U 99025DTZ 25341.16051346  .00029404  00000+0  62871-2 0  9991",
        "tle_line2": "2 36200  99.3875  54.4014 0033480  25.7780 334.5075 14.58359228732791"
      },
      "geometry": {
        "type": "Point",
        "coordinates": [
          -115.61050209052742,
          28.87611004145225
        ]
      }
    },
    {
      "type": "Feature",
      "properties": {
        "norad_id": 36203,
        "name": "FENGYUN 1C DEB",
        "group": "fengyun-1c-debris",
        "lat": 22.909597069308433,
        "lon": -74.90950130434237,
        "alt_km": 670.8118838859409,
        "timestamp": "2025-12-11T08:58:27.412145+00:00",
        "meta_object_name": "FENGYUN 1C DEB",
        "meta_object_id": "1999-025DUC",
        "meta_epoch": "2025-12-08T14:16:01.371648",
        "meta_mean_motion": 14.78297245,
        "meta_eccentricity": 0.0083233,
        "meta_inclination": 99.0964,
        "meta_ra_of_asc_node": 285.836,
        "meta_arg_of_pericenter": 161.4127,
        "meta_mean_anomaly": 199.0151,
        "meta_ephemeris_type": 0,
        "meta_classification_type": "U",
        "meta_norad_cat_id": 36203,
        "meta_element_set_no": 999,
        "meta_rev_at_epoch": 63368,
        "meta_bstar": 0.0016876,
        "meta_mean_motion_dot": 0.00012947,
        "meta_mean_motion_ddot": 0,
        "tle_line1": "1 36203U 99025DUC 25342.59446032  .00012947  00000+0  16876-2 0  9990",
        "tle_line2": "2 36203  99.0964 285.8360 0083233 161.4127 199.0151 14.78297245633687"
      },
      "geometry": {
        "type": "Point",
        "coordinates": [
          -74.90950130434237,
          22.909597069308433
        ]
      }
    },
    {
      "type": "Feature",
      "properties": {
        "norad_id": 36204,
        "name": "FENGYUN 1C DEB",
        "group": "fengyun-1c-debris",
        "lat": 10.9117427875589,
        "lon": 80.54161116177555,
        "alt_km": 790.9354180571208,
        "timestamp": "2025-12-11T08:58:27.412155+00:00",
        "meta_object_name": "FENGYUN 1C DEB",
        "meta_object_id": "1999-025DUD",
        "meta_epoch": "2025-12-09T13:24:01.015776",
        "meta_mean_motion": 14.34542102,
        "meta_eccentricity": 0.002004,
        "meta_inclination": 99.2908,
        "meta_ra_of_asc_node": 80.3994,
        "meta_arg_of_pericenter": 171.7637,
        "meta_mean_anomaly": 188.3878,
        "meta_ephemeris_type": 0,
        "meta_classification_type": "U",
        "meta_norad_cat_id": 36204,
        "meta_element_set_no": 999,
        "meta_rev_at_epoch": 94382,
        "meta_bstar": 0.0020121,
        "meta_mean_motion_dot": 5.645e-05,
        "meta_mean_motion_ddot": 0,
        "tle_line1": "1 36204U 99025DUD 25343.55834509  .00005645  00000+0  20121-2 0  9993",
        "tle_line2": "2 36204  99.2908  80.3994 0020040 171.7637 188.3878 14.34542102943820"
      },
      "geometry": {
        "type": "Point",
        "coordinates": [
          80.54161116177555,
          10.9117427875589
        ]
      }
    },
    {
      "type": "Feature",
      "properties": {
        "norad_id": 36206,
        "name": "FENGYUN 1C DEB",
        "group": "fengyun-1c-debris",
        "lat": 81.48440035491645,
        "lon": -86.23005854775336,
        "alt_km": 804.0113908833364,
        "timestamp": "2025-12-11T08:58:27.412166+00:00",
        "meta_object_name": "FENGYUN 1C DEB",
        "meta_object_id": "1999-025DUF",
        "meta_epoch": "2025-11-26T07:02:56.668416",
        "meta_mean_motion": 14.21517518,
        "meta_eccentricity": 0.00312218,
        "meta_inclination": 98.4807,
        "meta_ra_of_asc_node": 354.0922,
        "meta_arg_of_pericenter": 66.8272,
        "meta_mean_anomaly": 293.619,
        "meta_ephemeris_type": 0,
        "meta_classification_type": "U",
        "meta_norad_cat_id": 36206,
        "meta_element_set_no": 999,
        "meta_rev_at_epoch": 64187,
        "meta_bstar": 0.00073137291,
        "meta_mean_motion_dot": 1.568e-05,
        "meta_mean_motion_ddot": 0,
        "tle_line1": "1 36206U 99025DUF 25330.29371144  .00001568  00000+0  73137-3 0  9999",
        "tle_line2": "2 36206  98.4807 354.0922 0031221  66.8272 293.6190 14.21517518641871"
      },
      "geometry": {
        "type": "Point",
        "coordinates": [
          -86.23005854775336,
          81.48440035491645
        ]
      }
    },
    {
      "type": "Feature",
      "properties": {
        "norad_id": 36211,
        "name": "FENGYUN 1C DEB",
        "group": "fengyun-1c-debris",
        "lat": -27.271817898564766,
        "lon": 154.15197092648776,
        "alt_km": 637.0433265748507,
        "timestamp": "2025-12-11T08:58:27.412176+00:00",
        "meta_object_name": "FENGYUN 1C DEB",
        "meta_object_id": "1999-025DUL",
        "meta_epoch": "2025-12-09T17:15:13.514688",
        "meta_mean_motion": 14.25977627,
        "meta_eccentricity": 0.02664918,
        "meta_inclination": 98.5041,
        "meta_ra_of_asc_node": 336.9673,
        "meta_arg_of_pericenter": 237.7437,
        "meta_mean_anomaly": 119.7667,
        "meta_ephemeris_type": 0,
        "meta_classification_type": "U",
        "meta_norad_cat_id": 36211,
        "meta_element_set_no": 999,
        "meta_rev_at_epoch": 94326,
        "meta_bstar": 0.00084045027,
        "meta_mean_motion_dot": 2.863e-05,
        "meta_mean_motion_ddot": 0,
        "tle_line1": "1 36211U 99025DUL 25343.71890642  .00002863  00000+0  84045-3 0  9994",
        "tle_line2": "2 36211  98.5041 336.9673 0266491 237.7437 119.7667 14.25977627943261"
      },
      "geometry": {
        "type": "Point",
        "coordinates": [
          154.15197092648776,
          -27.271817898564766
        ]
      }
    },
    {
      "type": "Feature",
      "properties": {
        "norad_id": 36216,
        "name": "FENGYUN 1C DEB",
        "group": "fengyun-1c-debris",
        "lat": -72.21259151936424,
        "lon": 157.4431630231328,
        "alt_km": 856.2357186613262,
        "timestamp": "2025-12-11T08:58:27.412187+00:00",
        "meta_object_name": "FENGYUN 1C DEB",
        "meta_object_id": "1999-025DUR",
        "meta_epoch": "2025-12-09T18:32:38.416704",
        "meta_mean_motion": 14.18849305,
        "meta_eccentricity": 0.00451569,
        "meta_inclination": 98.6092,
        "meta_ra_of_asc_node": 4.0664,
        "meta_arg_of_pericenter": 26.4592,
        "meta_mean_anomaly": 333.8876,
        "meta_ephemeris_type": 0,
        "meta_classification_type": "U",
        "meta_norad_cat_id": 36216,
        "meta_element_set_no": 999,
        "meta_rev_at_epoch": 64330,
        "meta_bstar": 0.00051766748,
        "meta_mean_motion_dot": 1.046e-05,
        "meta_mean_motion_ddot": 0,
        "tle_line1": "1 36216U 99025DUR 25343.77266686  .00001046  00000+0  51767-3 0  9997",
        "tle_line2": "2 36216  98.6092   4.0664 0045156  26.4592 333.8876 14.18849305643300"
      },
      "geometry": {
        "type": "Point",
        "coordinates": [
          157.4431630231328,
          -72.21259151936424
        ]
      }
    }
  ]
}